{"fetched_at":"2026-03-29T16:36:15Z","count":15609,"tles":[{"name":"STARLINK-31392","line1":"1 59530U 24073V   26087.64229086  .00000831  00000+0  39727-4 0  9991","line2":"2 59530  43.0016 211.0281 0001047 283.2778  76.7957 15.27582979109075","category":"Starlink"}]}