{
  "norad_id": 59530,
  "name": "STARLINK-31392",
  "history": [
    {
      "epoch": "2026-03-28T15:24:53.930304",
      "apogee_km": 483.758541106773,
      "perigee_km": 482.3218106061486,
      "latitude_deg": 15.501982711520942,
      "longitude_deg": -165.34007744002156,
      "semi_major_axis_km": 6861.17717585646,
      "eccentricity": 0.0001047,
      "inclination_deg": 43.0016,
      "raan_deg": 211.0281,
      "arg_perigee_deg": 283.2778,
      "mean_anomaly_deg": 76.7957,
      "mean_motion_rev_day": 15.27582979
    }
  ]
}